CCSDS_OMM_VERS = 2.0
CREATION_DATE  = 
ORIGINATOR     = 

OBJECT_NAME    = STARLINK-36436
OBJECT_ID      = 2026-020K
CENTER_NAME    = EARTH
REF_FRAME      = TEME
TIME_SYSTEM    = UTC
MEAN_ELEMENT_THEORY = SGP/SGP4

EPOCH          = 2026-02-27T16:43:35.425920
MEAN_MOTION    = 15.76435506
ECCENTRICITY   = .0001609
INCLINATION    = 43.0000
RA_OF_ASC_NODE = 202.4871
ARG_OF_PERICENTER = 262.5295
MEAN_ANOMALY   = 97.5391

EPHEMERIS_TYPE = 0
CLASSIFICATION_TYPE = U
NORAD_CAT_ID   = 67626
ELEMENT_SET_NO = 999
REV_AT_EPOCH   = 451
BSTAR          = .16837E-2
MEAN_MOTION_DOT = .283934E-2
MEAN_MOTION_DDOT = 0

CCSDS_OMM_VERS = 2.0
CREATION_DATE  = 
ORIGINATOR     = 

OBJECT_NAME    = STARLINK-36502
OBJECT_ID      = 2026-020L
CENTER_NAME    = EARTH
REF_FRAME      = TEME
TIME_SYSTEM    = UTC
MEAN_ELEMENT_THEORY = SGP/SGP4

EPOCH          = 2026-02-27T16:27:49.516128
MEAN_MOTION    = 15.76453483
ECCENTRICITY   = .0001132
INCLINATION    = 42.9993
RA_OF_ASC_NODE = 202.3976
ARG_OF_PERICENTER = 236.0092
MEAN_ANOMALY   = 124.0671

EPHEMERIS_TYPE = 0
CLASSIFICATION_TYPE = U
NORAD_CAT_ID   = 67627
ELEMENT_SET_NO = 999
REV_AT_EPOCH   = 451
BSTAR          = .20131E-2
MEAN_MOTION_DOT = .342229E-2
MEAN_MOTION_DDOT = 0

CCSDS_OMM_VERS = 2.0
CREATION_DATE  = 
ORIGINATOR     = 

OBJECT_NAME    = STARLINK-36532
OBJECT_ID      = 2026-020M
CENTER_NAME    = EARTH
REF_FRAME      = TEME
TIME_SYSTEM    = UTC
MEAN_ELEMENT_THEORY = SGP/SGP4

EPOCH          = 2026-02-27T16:24:40.434048
MEAN_MOTION    = 15.76429429
ECCENTRICITY   = .0001296
INCLINATION    = 43.0006
RA_OF_ASC_NODE = 202.3802
ARG_OF_PERICENTER = 296.9613
MEAN_ANOMALY   = 63.1124

EPHEMERIS_TYPE = 0
CLASSIFICATION_TYPE = U
NORAD_CAT_ID   = 67628
ELEMENT_SET_NO = 999
REV_AT_EPOCH   = 451
BSTAR          = .17058E-2
MEAN_MOTION_DOT = .287727E-2
MEAN_MOTION_DDOT = 0

CCSDS_OMM_VERS = 2.0
CREATION_DATE  = 
ORIGINATOR     = 

OBJECT_NAME    = STARLINK-36367
OBJECT_ID      = 2026-020N
CENTER_NAME    = EARTH
REF_FRAME      = TEME
TIME_SYSTEM    = UTC
MEAN_ELEMENT_THEORY = SGP/SGP4

EPOCH          = 2026-02-27T10:54:24.547392
MEAN_MOTION    = 15.76380685
ECCENTRICITY   = .0003699
INCLINATION    = 42.9994
RA_OF_ASC_NODE = 204.1165
ARG_OF_PERICENTER = 288.6323
MEAN_ANOMALY   = 71.4145

EPHEMERIS_TYPE = 0
CLASSIFICATION_TYPE = U
NORAD_CAT_ID   = 67629
ELEMENT_SET_NO = 999
REV_AT_EPOCH   = 447
BSTAR          = .18148E-2
MEAN_MOTION_DOT = .306193E-2
MEAN_MOTION_DDOT = 0

CCSDS_OMM_VERS = 2.0
CREATION_DATE  = 
ORIGINATOR     = 

OBJECT_NAME    = STARLINK-36416
OBJECT_ID      = 2026-020P
CENTER_NAME    = EARTH
REF_FRAME      = TEME
TIME_SYSTEM    = UTC
MEAN_ELEMENT_THEORY = SGP/SGP4

EPOCH          = 2026-02-27T12:47:43.130112
MEAN_MOTION    = 15.76363724
ECCENTRICITY   = .0002997
INCLINATION    = 42.9986
RA_OF_ASC_NODE = 203.8563
ARG_OF_PERICENTER = 309.6950
MEAN_ANOMALY   = 50.3655

EPHEMERIS_TYPE = 0
CLASSIFICATION_TYPE = U
NORAD_CAT_ID   = 67630
ELEMENT_SET_NO = 999
REV_AT_EPOCH   = 448
BSTAR          = .16989E-2
MEAN_MOTION_DOT = .285678E-2
MEAN_MOTION_DDOT = 0

CCSDS_OMM_VERS = 2.0
CREATION_DATE  = 
ORIGINATOR     = 

OBJECT_NAME    = STARLINK-36527
OBJECT_ID      = 2026-020Q
CENTER_NAME    = EARTH
REF_FRAME      = TEME
TIME_SYSTEM    = UTC
MEAN_ELEMENT_THEORY = SGP/SGP4

EPOCH          = 2026-02-27T16:00:03.999744
MEAN_MOTION    = 15.76387956
ECCENTRICITY   = .0001636
INCLINATION    = 42.9990
RA_OF_ASC_NODE = 202.3936
ARG_OF_PERICENTER = 243.0551
MEAN_ANOMALY   = 57.2454

EPHEMERIS_TYPE = 0
CLASSIFICATION_TYPE = U
NORAD_CAT_ID   = 67631
ELEMENT_SET_NO = 999
REV_AT_EPOCH   = 577
BSTAR          = -.25467E-3
MEAN_MOTION_DOT = -.41793E-3
MEAN_MOTION_DDOT = 0

CCSDS_OMM_VERS = 2.0
CREATION_DATE  = 
ORIGINATOR     = 

OBJECT_NAME    = STARLINK-36633
OBJECT_ID      = 2026-020R
CENTER_NAME    = EARTH
REF_FRAME      = TEME
TIME_SYSTEM    = UTC
MEAN_ELEMENT_THEORY = SGP/SGP4

EPOCH          = 2026-02-27T16:37:15.632256
MEAN_MOTION    = 15.76511573
ECCENTRICITY   = .0001345
INCLINATION    = 43.0002
RA_OF_ASC_NODE = 202.4512
ARG_OF_PERICENTER = 259.5420
MEAN_ANOMALY   = 100.5299

EPHEMERIS_TYPE = 0
CLASSIFICATION_TYPE = U
NORAD_CAT_ID   = 67632
ELEMENT_SET_NO = 999
REV_AT_EPOCH   = 451
BSTAR          = .21444E-2
MEAN_MOTION_DOT = .366587E-2
MEAN_MOTION_DDOT = 0

CCSDS_OMM_VERS = 2.0
CREATION_DATE  = 
ORIGINATOR     = 

OBJECT_NAME    = STARLINK-36637
OBJECT_ID      = 2026-020S
CENTER_NAME    = EARTH
REF_FRAME      = TEME
TIME_SYSTEM    = UTC
MEAN_ELEMENT_THEORY = SGP/SGP4

EPOCH          = 2026-02-27T17:18:16.483968
MEAN_MOTION    = 15.76412350
ECCENTRICITY   = .0001882
INCLINATION    = 42.9996
RA_OF_ASC_NODE = 202.6821
ARG_OF_PERICENTER = 275.1743
MEAN_ANOMALY   = 84.8911

EPHEMERIS_TYPE = 0
CLASSIFICATION_TYPE = U
NORAD_CAT_ID   = 67633
ELEMENT_SET_NO = 999
REV_AT_EPOCH   = 451
BSTAR          = .18196E-2
MEAN_MOTION_DOT = .307452E-2
MEAN_MOTION_DDOT = 0

CCSDS_OMM_VERS = 2.0
CREATION_DATE  = 
ORIGINATOR     = 

OBJECT_NAME    = STARLINK-36617
OBJECT_ID      = 2026-020T
CENTER_NAME    = EARTH
REF_FRAME      = TEME
TIME_SYSTEM    = UTC
MEAN_ELEMENT_THEORY = SGP/SGP4

EPOCH          = 2026-02-27T10:13:24.621024
MEAN_MOTION    = 15.76625488
ECCENTRICITY   = .0007586
INCLINATION    = 42.9975
RA_OF_ASC_NODE = 203.8838
ARG_OF_PERICENTER = 139.6173
MEAN_ANOMALY   = 220.5261

EPHEMERIS_TYPE = 0
CLASSIFICATION_TYPE = U
NORAD_CAT_ID   = 67634
ELEMENT_SET_NO = 999
REV_AT_EPOCH   = 447
BSTAR          = .17542E-2
MEAN_MOTION_DOT = .299258E-2
MEAN_MOTION_DDOT = 0

CCSDS_OMM_VERS = 2.0
CREATION_DATE  = 
ORIGINATOR     = 

OBJECT_NAME    = STARLINK-36627
OBJECT_ID      = 2026-020U
CENTER_NAME    = EARTH
REF_FRAME      = TEME
TIME_SYSTEM    = UTC
MEAN_ELEMENT_THEORY = SGP/SGP4

EPOCH          = 2026-02-27T09:32:37.550112
MEAN_MOTION    = 15.76625889
ECCENTRICITY   = .0002323
INCLINATION    = 42.9964
RA_OF_ASC_NODE = 204.5553
ARG_OF_PERICENTER = 269.6639
MEAN_ANOMALY   = 90.3964

EPHEMERIS_TYPE = 0
CLASSIFICATION_TYPE = U
NORAD_CAT_ID   = 67635
ELEMENT_SET_NO = 999
REV_AT_EPOCH   = 446
BSTAR          = .33901E-2
MEAN_MOTION_DOT = .59923E-2
MEAN_MOTION_DDOT = 0

CCSDS_OMM_VERS = 2.0
CREATION_DATE  = 
ORIGINATOR     = 

OBJECT_NAME    = STARLINK-36624
OBJECT_ID      = 2026-020V
CENTER_NAME    = EARTH
REF_FRAME      = TEME
TIME_SYSTEM    = UTC
MEAN_ELEMENT_THEORY = SGP/SGP4

EPOCH          = 2026-02-27T10:35:29.210784
MEAN_MOTION    = 15.76400807
ECCENTRICITY   = .0001836
INCLINATION    = 42.9982
RA_OF_ASC_NODE = 204.0100
ARG_OF_PERICENTER = 273.2639
MEAN_ANOMALY   = 86.8021

EPHEMERIS_TYPE = 0
CLASSIFICATION_TYPE = U
NORAD_CAT_ID   = 67636
ELEMENT_SET_NO = 999
REV_AT_EPOCH   = 447
BSTAR          = .17208E-2
MEAN_MOTION_DOT = .289967E-2
MEAN_MOTION_DDOT = 0

CCSDS_OMM_VERS = 2.0
CREATION_DATE  = 
ORIGINATOR     = 

OBJECT_NAME    = STARLINK-36610
OBJECT_ID      = 2026-020W
CENTER_NAME    = EARTH
REF_FRAME      = TEME
TIME_SYSTEM    = UTC
MEAN_ELEMENT_THEORY = SGP/SGP4

EPOCH          = 2026-02-27T12:38:15.655776
MEAN_MOTION    = 15.76370522
ECCENTRICITY   = .0000789
INCLINATION    = 42.9980
RA_OF_ASC_NODE = 203.8010
ARG_OF_PERICENTER = 288.2908
MEAN_ANOMALY   = 71.7876

EPHEMERIS_TYPE = 0
CLASSIFICATION_TYPE = U
NORAD_CAT_ID   = 67637
ELEMENT_SET_NO = 999
REV_AT_EPOCH   = 448
BSTAR          = .2451E-2
MEAN_MOTION_DOT = .419121E-2
MEAN_MOTION_DDOT = 0

