STARLINK-36436          
1 67626U 26020K   26058.69693780  .00283934  00000+0  16837-2 0  9991
2 67626  43.0000 202.4871 0001609 262.5295  97.5391 15.76435506  4513
STARLINK-36502          
1 67627U 26020L   26058.68598977  .00342229  00000+0  20131-2 0  9998
2 67627  42.9993 202.3976 0001132 236.0092 124.0671 15.76453483  4511
STARLINK-36532          
1 67628U 26020M   26058.68380132  .00287727  00000+0  17058-2 0  9996
2 67628  43.0006 202.3802 0001296 296.9613  63.1124 15.76429429  4511
STARLINK-36367          
1 67629U 26020N   26058.45445078  .00306193  00000+0  18148-2 0  9993
2 67629  42.9994 204.1165 0003699 288.6323  71.4145 15.76380685  4473
STARLINK-36416          
1 67630U 26020P   26058.53313808  .00285678  00000+0  16989-2 0  9994
2 67630  42.9986 203.8563 0002997 309.6950  50.3655 15.76363724  4482
STARLINK-36527          
1 67631U 26020Q   26058.66671296 -.00041793  00000+0 -25467-3 0  9999
2 67631  42.9990 202.3936 0001636 243.0551  57.2454 15.76387956  5772
STARLINK-36633          
1 67632U 26020R   26058.69254204  .00366587  00000+0  21444-2 0  9998
2 67632  43.0002 202.4512 0001345 259.5420 100.5299 15.76511573  4518
STARLINK-36637          
1 67633U 26020S   26058.72102412  .00307452  00000+0  18196-2 0  9992
2 67633  42.9996 202.6821 0001882 275.1743  84.8911 15.76412350  4510
STARLINK-36617          
1 67634U 26020T   26058.42597941  .00299258  00000+0  17542-2 0  9993
2 67634  42.9975 203.8838 0007586 139.6173 220.5261 15.76625488  4477
STARLINK-36627          
1 67635U 26020U   26058.39765683  .00599230  00000+0  33901-2 0  9990
2 67635  42.9964 204.5553 0002323 269.6639  90.3964 15.76625889  4460
STARLINK-36624          
1 67636U 26020V   26058.44131031  .00289967  00000+0  17208-2 0  9996
2 67636  42.9982 204.0100 0001836 273.2639  86.8021 15.76400807  4479
STARLINK-36610          
1 67637U 26020W   26058.52657009  .00419121  00000+0  24510-2 0  9995
2 67637  42.9980 203.8010 0000789 288.2908  71.7876 15.76370522  4488
